1265 Schweikarda,e,9.510797,314.679001,116.53843,3.025672507,0.1872712871,0.0744334,18.75517,11/13/1996,2000,H11,0.15
1266 Tone,e,17.253404,321.827265,278.852376,3.357049748,0.1602386983,0.03947578,345.716435,11/13/1996,2000,H9.41,0.15
1267 Geertruida,e,4.786379,24.910129,266.336061,2.467741784,0.2542462183,0.18147296,6.803001,11/13/1996,2000,H12.1,0.15
1268 Libya,e,4.424401,351.873875,126.223067,3.958869911,0.1251259038,0.10363601,282.723404,11/13/1996,2000,H9.12,0.15
1269 Rollandia,e,2.756842,134.893386,25.856034,3.900355412,0.1279522123,0.09742972,17.726409,11/13/1996,2000,H8.82,0.15
1270 Datura,e,5.987354,98.00032,258.487015,2.23476941,0.2950224035,0.20794201,341.557407,11/13/1996,2000,H12.5,0.15
1271 Isergina,e,6.659301,127.783196,264.833202,3.138834108,0.1772358323,0.13150527,258.791565,11/13/1996,2000,H10.6,0.15
1272 Gefion,e,8.427461,321.769906,2.616189,2.78310897,0.2122798428,0.15141594,43.982561,11/13/1996,2000,H12.8,0.15
1273 Helma,e,5.417193,296.923481,48.195043,2.393993723,0.2660844915,0.16200237,116.964947,11/13/1996,2000,H12.8,0.15
1274 Delportia,e,4.403025,327.384871,244.002625,2.22950458,0.2960680346,0.11261902,303.175461,11/13/1996,2000,H11.82,0.15
1275 Cimbria,e,12.85555,188.747445,196.575487,2.679432771,0.2247189913,0.16845915,237.224436,11/13/1996,2000,H10.72,0.15
1276 Ucclia,e,23.393058,114.914404,331.692888,3.165268113,0.1750202581,0.10724618,143.158169,11/13/1996,2000,H10.4,0.15
1277 Dolores,e,6.996742,247.708947,45.73493,2.695425732,0.2227219492,0.24153794,66.512107,11/13/1996,2000,H11.05,0.15
1278 Kenya,e,10.867227,90.480364,238.196206,2.40585792,0.2641186749,0.26077632,319.795331,11/13/1996,2000,H10.8,0.15
1279 Uganda,e,5.733494,335.842412,297.144722,2.370774701,0.2700030361,0.20875936,130.385003,11/13/1996,2000,H12.51,0.15
1280 Baillauda,e,6.460717,293.42877,95.408146,3.408835276,0.1566011874,0.06332052,317.394789,11/13/1996,2000,H10.33,0.15
1281 Jeanne,e,7.443626,210.301983,72.495482,2.560479463,0.2405592875,0.20270803,202.042333,11/13/1996,2000,H11.6,0.15
1282 Utopia,e,18.045882,324.608083,82.577566,3.117626154,0.1790474003,0.12383104,98.190424,11/13/1996,2000,H10,0.15
1283 Komsomolia,e,8.890749,157.97403,236.573803,3.190639453,0.1729368234,0.2159917,105.277226,11/13/1996,2000,H10.3,0.15
1284 Latvia,e,10.900561,303.269051,114.389174,2.643897609,0.2292646654,0.17149259,183.783291,11/13/1996,2000,H10.24,0.15
1285 Julietta,e,5.69431,318.316089,75.409502,2.993385572,0.1903093309,0.04712213,28.210333,11/13/1996,2000,H10.6,0.15
1286 Banachiewicza,e,9.72665,201.058562,101.984109,3.019936063,0.1878051301,0.09392509,50.181786,11/13/1996,2000,H10.88,0.15
1287 Lorcia,e,9.817147,202.843846,274.034647,3.010086003,0.1887277305,0.06217791,273.963823,11/13/1996,2000,H11.07,0.15
1288 Santa,e,7.573675,299.389108,51.191141,2.88715916,0.2009083492,0.06437534,316.405414,11/13/1996,2000,H11.41,0.15
1289 Kutaissi,e,1.605826,193.501832,114.336086,2.859151265,0.2038676773,0.06125394,49.352938,11/13/1996,2000,H10.73,0.15
1290 Albertine,e,5.598518,307.641207,78.752508,2.366552275,0.2707259715,0.15317354,98.182322,11/13/1996,2000,H12.5,0.15
1291 Phryne,e,9.092905,216.02138,112.854009,3.012144868,0.1885342645,0.09189544,43.740665,11/13/1996,2000,H10.33,0.15
1292 Luce,e,2.154684,272.012773,237.955902,2.541303837,0.2432871583,0.05901701,63.256984,11/13/1996,2000,H11.3,0.15
1293 Sonja,e,5.359237,236.743207,99.197987,2.227508425,0.2964661005,0.27483525,12.091607,11/13/1996,2000,H12,0.15
1294 Antwerpia,e,8.71241,81.348865,312.669403,2.686346538,0.2238520213,0.23519512,115.876151,11/13/1996,2000,H10.2,0.15
1295 Deflotte,e,2.863443,185.326436,278.468896,3.400830756,0.1571543999,0.1113352,11.890693,11/13/1996,2000,H10.6,0.15
1296 Andree,e,4.106588,227.138377,236.78655,2.418303518,0.2620824032,0.14074555,241.721071,11/13/1996,2000,H10.9,0.15
1297 Quadea,e,9.002337,296.322578,129.224542,3.0211502,0.1876919291,0.0726036,37.471044,11/13/1996,2000,H10.8,0.15
1298 Nocturna,e,5.503909,300.276721,61.337372,3.119852573,0.1788557743,0.15538438,231.534009,11/13/1996,2000,H10.7,0.15
1299 Mertona,e,7.875623,165.9503,259.950156,2.800765084,0.2102756812,0.18845272,172.754959,11/13/1996,2000,H11.8,0.15
1300 Marcelle,e,9.543858,83.263422,341.567083,2.781983687,0.2124086532,0.00621802,263.643301,11/13/1996,2000,H10.9,0.15
1301 Yvonne,e,34.044252,161.704661,302.284495,2.764398933,0.2144386176,0.27204067,267.293239,11/13/1996,2000,H10.8,0.15
1302 Werra,e,2.597156,90.272208,356.299264,3.11835684,0.1789844731,0.16943872,328.031622,11/13/1996,2000,H10.6,0.15
1303 Luthera,e,19.528348,72.355471,100.946288,3.214900374,0.1709829458,0.12070033,342.375194,11/13/1996,2000,H9,0.15
1304 Arosa,e,18.910432,87.583189,143.058807,3.209539556,0.1714115078,0.10305161,345.96189,11/13/1996,2000,H9.1,0.15
1305 Pongola,e,2.320037,63.150881,152.99887,3.014897521,0.1882761209,0.07468123,90.286349,11/13/1996,2000,H10.65,0.15
1306 Scythia,e,14.942012,274.754735,132.260706,3.148403145,0.1764284292,0.10195984,246.787896,11/13/1996,2000,H9.71,0.15
1307 Cimmeria,e,3.94713,234.143419,206.571901,2.250188008,0.2919953027,0.0971383,157.776773,11/13/1996,2000,H12.25,0.15
1308 Halleria,e,5.574907,354.515401,174.370648,2.910319364,0.198514896,0.00801092,93.300505,11/13/1996,2000,H10.8,0.15
1309 Hyperborea,e,10.297474,206.316733,248.191345,3.201842538,0.172029972,0.15358782,62.029098,11/13/1996,2000,H10.2,0.15
1310 Villigera,e,21.05378,357.780582,87.900839,2.394844848,0.265942655,0.35505165,213.792853,11/13/1996,2000,H11.45,0.15
1311 Knopfia,e,2.821673,245.608997,241.143485,2.426750922,0.2607151503,0.04620948,347.756036,11/13/1996,2000,H12.2,0.15
1312 Vassar,e,21.930579,129.613933,262.516072,3.087325801,0.1816897303,0.22010633,164.73075,11/13/1996,2000,H10.8,0.15
1313 Berna,e,12.547058,298.764457,98.771118,2.655264546,0.2277940515,0.20760916,175.965625,11/13/1996,2000,H11.8,0.15
1314 Paula,e,5.238935,264.940638,143.793426,2.295572249,0.283378975,0.17399811,18.339887,11/13/1996,2000,H12.68,0.15
1315 Bronislawa,e,7.068245,236.734615,27.852368,3.202711324,0.171959978,0.0816125,78.929593,11/13/1996,2000,H9.8,0.15
1316 Kasan,e,23.93694,238.394233,148.106366,2.41220534,0.2630768675,0.3185865,306.338537,11/13/1996,2000,H13.3,0.15
1317 Silvretta,e,20.659917,7.364716,29.917231,3.187981789,0.1731531219,0.24649459,269.884893,11/13/1996,2000,H9.91,0.15
1318 Nerina,e,24.652835,358.489566,195.65504,2.308496109,0.2810026099,0.20228329,313.795141,11/13/1996,2000,H11.9,0.15
1319 Disa,e,2.790641,257.036649,316.361079,2.996532173,0.1900096493,0.1976765,29.76924,11/13/1996,2000,H11.1,0.15
1320 Impala,e,19.862388,72.278778,205.708598,2.984230822,0.1911857225,0.23615165,19.076361,11/13/1996,2000,H10.4,0.15
1321 Majuba,e,9.515955,318.233999,343.284001,2.940639261,0.1954525977,0.16808433,91.092057,11/13/1996,2000,H10.28,0.15
1322 Coppernicus,e,23.317886,253.419131,29.600135,2.424655778,0.2610531491,0.23307582,183.497495,11/13/1996,2000,H12.16,0.15
1323 Tugela,e,18.636934,46.269093,127.383081,3.21500975,0.1709742205,0.16542249,32.899772,11/13/1996,2000,H9.9,0.15
1324 Knysna,e,4.516536,304.659456,329.37568,2.184814782,0.3051983178,0.16322025,109.44798,11/13/1996,2000,H13.4,0.15
1325 Inanda,e,7.437281,14.5556,336.94601,2.541698535,0.2432304907,0.25657128,115.52807,11/13/1996,2000,H11.9,0.15
1326 Losaka,e,15.980669,101.890042,278.788453,2.667475096,0.2262317285,0.224499,60.59362,11/13/1996,2000,H10.92,0.15
1327 Namaqua,e,5.823774,58.170695,268.989124,2.782544356,0.2123444575,0.15991193,149.67202,11/13/1996,2000,H12.1,0.15
1328 Devota,e,5.769704,223.521135,175.114801,3.490058544,0.1511663078,0.14711256,307.592985,11/13/1996,2000,H10.31,0.15
1329 Eliane,e,14.484086,132.328555,165.677248,2.617452985,0.2327478831,0.17217874,268.392719,11/13/1996,2000,H10.9,0.15
1330 Spiridonia,e,15.963994,158.992392,11.279863,3.170505611,0.1745867517,0.07267671,211.180764,11/13/1996,2000,H10.17,0.15
1331 Solvejg,e,3.08811,121.726285,185.95462,3.112973193,0.1794489835,0.17782113,215.548059,11/13/1996,2000,H10.14,0.15
1332 Marconia,e,2.463328,14.126355,343.83309,3.064091223,0.183760235,0.12582208,15.60324,11/13/1996,2000,H10.2,0.15
1333 Cevenola,e,14.630373,115.230587,335.389227,2.632820371,0.2307130867,0.13374449,297.682372,11/13/1996,2000,H11.4,0.15
1334 Lundmarka,e,11.425138,133.649484,127.97082,2.916351699,0.1978992866,0.09078291,222.747621,11/13/1996,2000,H10,0.15
1335 Demoulina,e,2.542307,172.778519,198.500166,2.240066616,0.2939765395,0.15429315,182.488711,11/13/1996,2000,H13.8,0.15
1336 Zeelandia,e,3.196313,97.653228,216.959059,2.850943014,0.2047487547,0.06401157,4.178558,11/13/1996,2000,H10.66,0.15
1337 Gerarda,e,18.003072,160.600254,201.266235,2.908840244,0.1986663299,0.1016915,189.70532,11/13/1996,2000,H11.06,0.15
1338 Duponta,e,4.819854,325.825869,110.329854,2.263835464,0.2893588604,0.1130386,64.190482,11/13/1996,2000,H12.7,0.15
1339 Desagneauxa,e,8.697971,291.301135,167.208953,3.019698028,0.1878273369,0.05172798,268.378308,11/13/1996,2000,H10.81,0.15
1340 Yvette,e,0.422926,346.085939,225.327598,3.174751807,0.174236607,0.14067591,240.151076,11/13/1996,2000,H11.1,0.15
1341 Edmee,e,13.105266,107.834293,141.272206,2.741279897,0.2171570844,0.0789205,88.807982,11/13/1996,2000,H10.58,0.15
1342 Brabantia,e,20.948249,313.204465,228.983907,2.289012099,0.284598064,0.20260629,279.462155,11/13/1996,2000,H11.35,0.15
1343 Nicole,e,6.030494,41.403508,235.265343,2.570061573,0.2392152055,0.11057466,267.646818,11/13/1996,2000,H11.1,0.15
1344 Caubeta,e,5.658251,60.240827,133.214351,2.248217203,0.292379335,0.12029896,108.513913,11/13/1996,2000,H12.8,0.15
1345 Potomac,e,11.390834,137.650501,335.606779,3.98244097,0.1240166664,0.17846225,92.78723,11/13/1996,2000,H9.73,0.15
1346 Gotha,e,13.856954,166.487382,249.500334,2.628357255,0.2313009841,0.17782875,50.20754,11/13/1996,2000,H11.25,0.15
1347 Patria,e,11.873721,229.576838,200.304766,2.571827247,0.2389688999,0.06752793,257.204895,11/13/1996,2000,H11.6,0.15
1348 Michel,e,6.594033,87.940137,17.632849,2.79085756,0.21139639,0.13832572,284.859356,11/13/1996,2000,H11.4,0.15
